{
  "norad_id": 56759,
  "name": "NVS-01 (IRNSS-1J)",
  "history": [
    {
      "epoch": "2026-03-28T22:14:50.538912",
      "apogee_km": 35817.00183909573,
      "perigee_km": 35757.53596715055,
      "latitude_deg": -0.24232619418986034,
      "longitude_deg": -55.11051231995225,
      "semi_major_axis_km": 42165.405903123145,
      "eccentricity": 0.00070515,
      "inclination_deg": 2.3582,
      "raan_deg": 247.7099,
      "arg_perigee_deg": 52.8478,
      "mean_anomaly_deg": 348.9908,
      "mean_motion_rev_day": 1.00269381
    },
    {
      "epoch": "2026-03-28T23:57:27.745056",
      "apogee_km": 35816.9915615623,
      "perigee_km": 35757.56362623366,
      "latitude_deg": -2.232665423715401,
      "longitude_deg": -48.269172160187736,
      "semi_major_axis_km": 42165.414593897985,
      "eccentricity": 0.0007047,
      "inclination_deg": 2.3581,
      "raan_deg": 247.7079,
      "arg_perigee_deg": 52.8815,
      "mean_anomaly_deg": 14.6838,
      "mean_motion_rev_day": 1.0026935
    }
  ]
}